COSMO-SKYMED 1          
1 31598U 07023A   26159.51289861  .00002185  00000+0  19483-3 0  9994
2 31598  97.8857 351.2969 0001133  80.8199 279.3151 14.97061174 28491
COSMOS 2428             
1 31792U 07029A   26159.01101267 -.00000174  00000+0 -67939-4 0  9992
2 31792  70.9375  13.7451 0007234 152.6375 207.5129 14.12930113976857
SL-16 R/B               
1 31793U 07029B   26158.92722367  .00000311  00000+0  18580-3 0  9990
2 31793  70.9759 342.6951 0002239 258.5790 207.0203 14.14849857978137
KORONAS-FOTON           
1 33504U 09003A   26159.46800324  .00009911  00000+0  20520-3 0  9998
2 33504  82.4293 181.3537 0010712 176.4948 183.6377 15.45541908959755
CZ-2C R/B               
1 37731U 11030B   26159.47303889  .00001338  00000+0  17360-3 0  9995
2 37731  97.8651 115.0170 0053625  55.7794  58.2832 14.81450395803539
H-2A R/B                
1 38341U 12025E   26159.46006767  .00003075  00000+0  27735-3 0  9999
2 38341  98.4814 133.8863 0044286  17.3790 342.8933 14.95667928761786
SHIJIAN-16 (SJ-16)      
1 39358U 13057A   26159.52581148  .00000818  00000+0  82217-4 0  9991
2 39358  74.9735  13.0884 0016945 250.9066 109.0288 14.92592511685053
SL-4 R/B                
1 39679U 14021B   26159.50842617  .00010612  00000+0  22119-3 0  9995
2 39679  51.6058 253.2847 0091642  74.4037 286.7040 15.41771019670274
ALOS-2                  
1 39766U 14029A   26159.54979363  .00001420  00000+0  19696-3 0  9996
2 39766  97.9209 256.8374 0001670  90.8878 269.2525 14.79471931650309
YAOGAN-29               
1 41038U 15069A   26159.54187809  .00000122  00000+0  21653-4 0  9997
2 41038  98.0033 188.1612 0002951  66.7415 293.4108 14.83077548569345
ASTRO-H (HITOMI)        
1 41337U 16012A   26159.24547192  .00002390  00000+0  13591-3 0  9990
2 41337  30.9977 131.9342 0009609 164.4427 195.6508 15.10472221565937
HXMT (HUIYAN)           
1 42758U 17034A   26159.51719596  .00004305  00000+0  21464-3 0  9998
2 42758  43.0131 231.3169 0030173  89.9042 270.5264 15.18416131496344
SAOCOM 1A               
1 43641U 18076A   26159.49467051  .00000824  00000+0  10996-3 0  9990
2 43641  97.8889 346.3698 0001541  79.6333 280.5053 14.82170384414819
H-2A R/B                
1 43682U 18084L   26159.19052333  .00017078  00000+0  36277-3 0  9993
2 43682  98.8591  36.1169 0024268  70.4945 289.8918 15.44806429419734
SAOCOM 1B               
1 46265U 20059A   26159.52594572  .00000060  00000+0  14114-4 0  9991
2 46265  97.8890 345.4949 0001457  77.3125 282.8251 14.82162599312209
CSS (TIANHE)            
1 48274U 21035A   26159.08188283  .00025465  00000+0  30374-3 0  9998
2 48274  41.4696  17.3987 0008702   5.5904 354.5031 15.60427341291749
COSMOS 2550             
1 48865U 21056A   26159.54709542  .00005454  00000+0  17190-3 0  9992
2 48865  67.1417 126.0416 0008699 265.9700  94.0460 15.33750705277397
CZ-2C R/B               
1 52794U 22058K   26159.41150743  .00030391  00000+0  34632-3 0  9998
2 52794  50.1844 209.1611 0033034 231.2479 128.5541 15.61262962224275
CZ-2C R/B               
1 54039U 22132E   26159.48983780  .00059768  00000+0  48246-3 0  9992
2 54039  97.2912 166.1324 0016992 110.5537 249.7550 15.70495804204589
GSLV R/B                
1 54149U 22138AN  26159.42921705  .00002415  00000+0  20540-3 0  9997
2 54149  87.3799 135.9257 0021507 174.1252 186.0237 14.97219181197509
XRISM                   
1 57800U 23137A   26159.41312764  .00004849  00000+0  26689-3 0  9995
2 57800  31.0026  56.4327 0007910 236.9290 123.0589 15.12389074151532
ACS3                    
1 59588U 24077B   26159.37615785  .00026547  00000+0  19853-1 0  9990
2 59588  97.1680  80.1321 0051443  68.2245 292.4385 13.93892229106814
CZ-8A R/B               
1 66004U 25231K   26159.45755791 -.00000024  00000+0  49826-4 0  9994
2 66004  50.0043  76.4554 0116475 193.2724 166.5119 14.30152525 33691
SZ-21 MODULE            
1 66515U 25246C   26157.31606433  .00056445  00000+0  36002-3 0  9996
2 66515  41.4728  14.9847 0007184 283.9983  76.0062 15.75457395 32025
